[{"OBJECT_NAME":"HST","OBJECT_ID":"1990-037B","EPOCH":"2026-03-09T03:50:04.164288","MEAN_MOTION":15.29473555,"ECCENTRICITY":0.00018372,"INCLINATION":28.4717,"RA_OF_ASC_NODE":43.6133,"ARG_OF_PERICENTER":120.9992,"MEAN_ANOMALY":239.0785,"EPHEMERIS_TYPE":0,"CLASSIFICATION_TYPE":"U","NORAD_CAT_ID":20580,"ELEMENT_SET_NO":999,"REV_AT_EPOCH":77323,"BSTAR":0.0003002261,"MEAN_MOTION_DOT":9.063e-5,"MEAN_MOTION_DDOT":0},{"OBJECT_NAME":"STARLINK-32229","OBJECT_ID":"2024-144M","EPOCH":"2026-03-09T15:29:14.269056","MEAN_MOTION":15.3019503,"ECCENTRICITY":0.0001003,"INCLINATION":53.1594,"RA_OF_ASC_NODE":217.2449,"ARG_OF_PERICENTER":85.0457,"MEAN_ANOMALY":275.0658,"EPHEMERIS_TYPE":0,"CLASSIFICATION_TYPE":"U","NORAD_CAT_ID":60436,"ELEMENT_SET_NO":999,"REV_AT_EPOCH":8930,"BSTAR":-5.4522e-5,"MEAN_MOTION_DOT":-1.973e-5,"MEAN_MOTION_DDOT":0}]
