HST                     
1 20580U 90037B   26068.15977042  .00009063  00000+0  30023-3 0  9999
2 20580  28.4717  43.6133 0001837 120.9992 239.0785 15.29473555773239
STARLINK-32229          
1 60436U 24144M   26068.64530404 -.00001973  00000+0 -54522-4 0  9995
2 60436  53.1594 217.2449 0001003  85.0457 275.0658 15.30195030 89300
